STARLINK-33733          
1 63435U 25069C   25207.02160660  .00050847  00000+0  12726-2 0  9993
2 63435  53.1586 118.6840 0001209  57.6796 302.4326 15.39621982 18602
STARLINK-33638          
1 63436U 25069D   25207.07723366  .00053403  00000+0  13357-2 0  9999
2 63436  53.1594 118.3203 0001154  84.5887 275.5250 15.39620555 18657
STARLINK-33726          
1 63437U 25069E   25207.15607671  .00064397  00000+0  16051-2 0  9997
2 63437  53.1580 118.1011 0000810  73.7734 286.3360 15.39643588 18627
STARLINK-33681          
1 63438U 25069F   25207.01696155  .00030506  00000+0  76918-3 0  9992
2 63438  53.1587 118.6535 0000921  76.7112 283.3995 15.39635459 18648
STARLINK-33730          
1 63439U 25069G   25206.74304426  .00036125  00000+0  88460-3 0  9997
2 63439  53.1584 119.7938 0001144 186.1288 173.9703 15.40442986 18614
STARLINK-33743          
1 63440U 25069H   25207.07258896  .00016681  00000+0  42600-3 0  9996
2 63440  53.1590 118.2907 0000968  86.8779 273.2337 15.39626791 18553
STARLINK-33715          
1 63441U 25069J   25207.12812211  .00038039  00000+0  95563-3 0  9997
2 63441  53.1588 117.2100 0001243  81.8346 278.2799 15.39638546 18678
STARLINK-33762          
1 63442U 25069K   25206.96564613  .00024033  00000+0  60888-3 0  9990
2 63442  53.1586 119.0463 0001079 108.1455 251.9667 15.39621915 18630
STARLINK-33753          
1 63443U 25069L   25207.14181624  .00017392  00000+0  44370-3 0  9997
2 63443  53.1594 118.0096 0001045  81.5092 278.6031 15.39625467 18665
STARLINK-33747          
1 63444U 25069M   25207.18848910  .00035161  00000+0  88427-3 0  9995
2 63444  53.1578 117.5901 0002318  23.6422 336.4689 15.39642473 18629
STARLINK-33659          
1 63445U 25069N   25206.93778597  .00033763  00000+0  84980-3 0  9997
2 63445  53.1592 118.8700 0000961  80.2910 279.8203 15.39638346 18581
STARLINK-33746          
1 63446U 25069P   25207.25001157  .00057815  00000+0  14458-2 0  9991
2 63446  53.1574 117.1983 0001182  77.7667 315.0628 15.39590762 18643
STARLINK-33799          
1 63447U 25069Q   25206.92418623  .00044923  00000+0  11259-2 0  9997
2 63447  53.1583 118.7829 0001115  55.0867 305.0243 15.39634667 18530
STARLINK-33797          
1 63448U 25069R   25207.12788618  .00029630  00000+0  74747-3 0  9995
2 63448  53.1577 117.9217 0000984  84.5538 275.5579 15.39635291 18628
STARLINK-33798          
1 63449U 25069S   25207.06244315  .00020222  00000+0  51396-3 0  9993
2 63449  53.1588 116.7927 0001135  86.1496 273.9638 15.39633879 18411
STARLINK-33736          
1 63450U 25069T   25207.04439623  .00040847  00000+0  10258-2 0  9997
2 63450  53.1573 118.1092 0000927  79.9039 280.2070 15.39616688 18619
STARLINK-33740          
1 63451U 25069U   25207.16493948  .00048162  00000+0  12063-2 0  9995
2 63451  53.1580 117.4376 0001187  76.0610 284.0527 15.39623473 18571
STARLINK-33763          
1 63452U 25069V   25207.03922380  .00028669  00000+0  72377-3 0  9994
2 63452  53.1578 116.6429 0001038  61.2674 298.8435 15.39630294 18660
STARLINK-33784          
1 63453U 25069W   25207.25001157 -.00088777  00000+0 -22324-2 0  9993
2 63453  53.1573 117.1931 0001241  56.1590 338.5761 15.39659616 18692
STARLINK-33768          
1 63454U 25069X   25207.16441037  .00048015  00000+0  12026-2 0  9996
2 63454  53.1578 116.0023 0000990  90.1471 269.9647 15.39625173 18684
STARLINK-33761          
1 63455U 25069Y   25207.12271545  .00034645  00000+0  87196-3 0  9993
2 63455  53.1584 116.4550 0001535  46.7625 313.3507 15.39627480 18698
STARLINK-33737          
1 63456U 25069Z   25207.13649813  .02277698  00000+0  47007-1 0  9996
2 63456  53.1588 115.8231 0011729 348.5304  11.5433 15.41990695 18582
STARLINK-33795          
1 63457U 25069AA  25207.16467449  .00045630  00000+0  12081-2 0  9995
2 63457  53.1600 116.0058 0001094  71.3929 288.7194 15.37945016 18591
STARLINK-33756          
1 63458U 25069AB  25207.14118996  .00026912  00000+0  68004-3 0  9993
2 63458  53.1581 115.8538 0000621  93.2246 266.8830 15.39635715 18701
STARLINK-33780          
1 63459U 25069AC  25207.00002315  .00003674  00000+0  10180-3 0  9998
2 63459  53.1586 116.4706 0001383  74.9110 248.0574 15.39614495 18566
STARLINK-33679          
1 63460U 25070A   25207.12862805  .00014550  00000+0  53693-3 0  9994
2 63460  43.0014  99.6078 0001884 274.3406  85.7230 15.27597052 18310
STARLINK-33706          
1 63461U 25070B   25206.74016717  .00018742  00000+0  68884-3 0  9990
2 63461  42.9984 101.8189 0000928 270.7650  89.3096 15.27581068 18267
STARLINK-33691          
1 63462U 25070C   25206.75415144  .00020869  00000+0  76562-3 0  9994
2 63462  43.0008 101.0620 0001308 251.5327 108.5382 15.27585230 18223
STARLINK-33696          
1 63463U 25070D   25206.50001157  .00012309  00000+0  45595-3 0  9995
2 63463  43.0017 102.8395 0001714 283.7946 335.5342 15.27588758  5904
STARLINK-33701          
1 63464U 25070E   25207.07094891  .00018679  00000+0  68635-3 0  9992
2 63464  42.9985 100.0010 0001494 271.6964  88.3716 15.27590779 18304
