OBJECT_NAME,OBJECT_ID,EPOCH,MEAN_MOTION,ECCENTRICITY,INCLINATION,RA_OF_ASC_NODE,ARG_OF_PERICENTER,MEAN_ANOMALY,EPHEMERIS_TYPE,CLASSIFICATION_TYPE,NORAD_CAT_ID,ELEMENT_SET_NO,REV_AT_EPOCH,BSTAR,MEAN_MOTION_DOT,MEAN_MOTION_DDOT
STARLINK-33733,2025-069C,2025-07-26T00:31:06.810240,15.39621982,.0001209,53.1586,118.6840,57.6796,302.4326,0,U,63435,999,1860,.12726E-2,.50847E-3,0
STARLINK-33638,2025-069D,2025-07-26T01:51:12.988224,15.39620555,.0001154,53.1594,118.3203,84.5887,275.5250,0,U,63436,999,1865,.13357E-2,.53403E-3,0
STARLINK-33726,2025-069E,2025-07-26T03:44:45.027744,15.39643588,.000081,53.1580,118.1011,73.7734,286.3360,0,U,63437,999,1862,.16051E-2,.64397E-3,0
STARLINK-33681,2025-069F,2025-07-26T00:24:25.477920,15.39635459,.0000921,53.1587,118.6535,76.7112,283.3995,0,U,63438,999,1864,.76918E-3,.30506E-3,0
STARLINK-33730,2025-069G,2025-07-25T17:49:59.024064,15.40442986,.0001144,53.1584,119.7938,186.1288,173.9703,0,U,63439,999,1861,.8846E-3,.36125E-3,0
STARLINK-33743,2025-069H,2025-07-26T01:44:31.686144,15.39626791,.0000968,53.1590,118.2907,86.8779,273.2337,0,U,63440,999,1855,.426E-3,.16681E-3,0
STARLINK-33715,2025-069J,2025-07-26T03:04:29.750304,15.39638546,.0001243,53.1588,117.2100,81.8346,278.2799,0,U,63441,999,1867,.95563E-3,.38039E-3,0
STARLINK-33762,2025-069K,2025-07-25T23:10:31.825632,15.39621915,.0001079,53.1586,119.0463,108.1455,251.9667,0,U,63442,999,1863,.60888E-3,.24033E-3,0
STARLINK-33753,2025-069L,2025-07-26T03:24:12.923136,15.39625467,.0001045,53.1594,118.0096,81.5092,278.6031,0,U,63443,999,1866,.4437E-3,.17392E-3,0
STARLINK-33747,2025-069M,2025-07-26T04:31:25.458240,15.39642473,.0002318,53.1578,117.5901,23.6422,336.4689,0,U,63444,999,1862,.88427E-3,.35161E-3,0
STARLINK-33659,2025-069N,2025-07-25T22:30:24.707808,15.39638346,.0000961,53.1592,118.8700,80.2910,279.8203,0,U,63445,999,1858,.8498E-3,.33763E-3,0
STARLINK-33746,2025-069P,2025-07-26T06:00:00.999648,15.39590762,.0001182,53.1574,117.1983,77.7667,315.0628,0,U,63446,999,1864,.14458E-2,.57815E-3,0
STARLINK-33799,2025-069Q,2025-07-25T22:10:49.690272,15.39634667,.0001115,53.1583,118.7829,55.0867,305.0243,0,U,63447,999,1853,.11259E-2,.44923E-3,0
STARLINK-33797,2025-069R,2025-07-26T03:04:09.365952,15.39635291,.0000984,53.1577,117.9217,84.5538,275.5579,0,U,63448,999,1862,.74747E-3,.2963E-3,0
STARLINK-33798,2025-069S,2025-07-26T01:29:55.088160,15.39633879,.0001135,53.1588,116.7927,86.1496,273.9638,0,U,63449,999,1841,.51396E-3,.20222E-3,0
STARLINK-33736,2025-069T,2025-07-26T01:03:55.834272,15.39616688,.0000927,53.1573,118.1092,79.9039,280.2070,0,U,63450,999,1861,.10258E-2,.40847E-3,0
STARLINK-33740,2025-069U,2025-07-26T03:57:30.771072,15.39623473,.0001187,53.1580,117.4376,76.0610,284.0527,0,U,63451,999,1857,.12063E-2,.48162E-3,0
STARLINK-33763,2025-069V,2025-07-26T00:56:28.936320,15.39630294,.0001038,53.1578,116.6429,61.2674,298.8435,0,U,63452,999,1866,.72377E-3,.28669E-3,0
STARLINK-33784,2025-069W,2025-07-26T06:00:00.999648,15.39659616,.0001241,53.1573,117.1931,56.1590,338.5761,0,U,63453,999,1869,-.22324E-2,-.88777E-3,0
STARLINK-33768,2025-069X,2025-07-26T03:56:45.055968,15.39625173,.000099,53.1578,116.0023,90.1471,269.9647,0,U,63454,999,1868,.12026E-2,.48015E-3,0
STARLINK-33761,2025-069Y,2025-07-26T02:56:42.614880,15.39627480,.0001535,53.1584,116.4550,46.7625,313.3507,0,U,63455,999,1869,.87196E-3,.34645E-3,0
STARLINK-33737,2025-069Z,2025-07-26T03:16:33.438432,15.41990695,.0011729,53.1588,115.8231,348.5304,11.5433,0,U,63456,999,1858,.47007E-1,.2277698E-1,0
STARLINK-33795,2025-069AA,2025-07-26T03:57:07.875936,15.37945016,.0001094,53.1600,116.0058,71.3929,288.7194,0,U,63457,999,1859,.12081E-2,.4563E-3,0
STARLINK-33756,2025-069AB,2025-07-26T03:23:18.812544,15.39635715,.0000621,53.1581,115.8538,93.2246,266.8830,0,U,63458,999,1870,.68004E-3,.26912E-3,0
STARLINK-33780,2025-069AC,2025-07-26T00:00:02.000160,15.39614495,.0001383,53.1586,116.4706,74.9110,248.0574,0,U,63459,999,1856,.1018E-3,.3674E-4,0
STARLINK-33679,2025-070A,2025-07-26T03:05:13.463520,15.27597052,.0001884,43.0014,99.6078,274.3406,85.7230,0,U,63460,999,1831,.53693E-3,.1455E-3,0
STARLINK-33706,2025-070B,2025-07-25T17:45:50.443488,15.27581068,.0000928,42.9984,101.8189,270.7650,89.3096,0,U,63461,999,1826,.68884E-3,.18742E-3,0
STARLINK-33691,2025-070C,2025-07-25T18:05:58.684416,15.27585230,.0001308,43.0008,101.0620,251.5327,108.5382,0,U,63462,999,1822,.76562E-3,.20869E-3,0
STARLINK-33696,2025-070D,2025-07-25T12:00:00.999648,15.27588758,.0001714,43.0017,102.8395,283.7946,335.5342,0,U,63463,999,590,.45595E-3,.12309E-3,0
STARLINK-33701,2025-070E,2025-07-26T01:42:09.985824,15.27590779,.0001494,42.9985,100.0010,271.6964,88.3716,0,U,63464,999,1830,.68635E-3,.18679E-3,0
